ONEWEB-0043             
1 45149U 20008U   23266.43984275  .00000685  00000+0  19271-2 0  9994
2 45149  87.8850 234.4058 0002041 100.4499 259.6859 13.10374115177512
ONEWEB-0044             
1 45150U 20008V   23266.46908185  .00000326  00000+0  89727-3 0  9991
2 45150  87.8842 234.3987 0002095  93.5121 266.6246 13.10372131177815
ONEWEB-0045             
1 45151U 20008W   23266.42899199 -.00000336  00000+0 -98428-3 0  9993
2 45151  87.8949 219.2454 0002039  75.6057 284.5297 13.11416463179637
ONEWEB-0047             
1 45152U 20008X   23266.46095001 -.00000949  00000+0 -27534-2 0  9997
2 45152  87.8842 234.4009 0001991  81.2392 278.8960 13.10381791177530
ONEWEB-0048             
1 45153U 20008Y   23266.45608528  .00000405  00000+0  11231-2 0  9993
2 45153  87.8846 234.4117 0001885  84.3416 275.7926 13.10375459177147
ONEWEB-0049             
1 45154U 20008Z   23266.45770856  .00000306  00000+0  84165-3 0  9995
2 45154  87.8850 234.3809 0001768  85.6225 274.5104 13.10375617177367
ONEWEB-0051             
1 45155U 20008AA  23266.42687920 -.00000170  00000+0 -51528-3 0  9990
2 45155  87.8954 219.2784 0002047  74.7569 285.3785 13.11415993180315
ONEWEB-0052             
1 45156U 20008AB  23266.45445032  .00000459  00000+0  12772-2 0  9995
2 45156  87.8852 234.3653 0001422 105.3012 254.8272 13.10376737177270
